ONEWEB-0650             
1 55813U 23029T   23353.82130186 -.00000008  00000+0 -52524-4 0  9994
2 55813  87.9200 126.1764 0001826 117.9422 242.1895 13.19724712 39516
ONEWEB-0652             
1 55814U 23029U   23354.33360845  .00000313  00000+0  81047-3 0  9997
2 55814  87.8988 110.8170 0001500  99.6566 260.4733 13.14503841 40524
ONEWEB-0653             
1 55815U 23029V   23353.40431260  .00000321  00000+0  83181-3 0  9995
2 55815  87.8988 110.9780 0001282 105.5951 254.5321 13.14500607 39741
ONEWEB-0654             
1 55816U 23029W   23353.39957495  .00000285  00000+0  73464-3 0  9999
2 55816  87.8988 110.9945 0001380  86.1290 273.9998 13.14503312 39767
ONEWEB-0656             
1 55817U 23029X   23353.83474996  .00000105  00000+0  22594-3 0  9998
2 55817  87.9204  95.6215 0002122  86.1262 274.0114 13.20773629 41664
ONEWEB-0657             
1 55818U 23029Y   23354.42309413  .00000106  00000+0  23251-3 0  9998
2 55818  87.9201 126.0625 0002478  89.8207 270.3210 13.19723984 39591
ONEWEB-0658             
1 55819U 23029Z   23354.41834446 -.00000045  00000+0 -14571-3 0  9996
2 55819  87.9201 126.0005 0001951 125.3965 234.7351 13.19726130 39604
ONEWEB-0660             
1 55820U 23029AA  23354.36689605 -.00000068  00000+0 -21767-3 0  9997
2 55820  87.8985 110.7769 0001313 128.0258 232.0991 13.14506047 40586
